STARLINK-32665          
1 62203U 24229M   26068.57456917  .00026498  00000+0  96895-3 0  9996
2 62203  42.9995 271.3734 0001599 246.8294 113.2389 15.27580721 70540
TEVEL2-2                
1 63219U 25052K   26068.64848259  .00020339  00000+0  69428-3 0  9991
2 63219  97.3987 324.7700 0004693 105.7930 254.3828 15.30343745 54855
